{
  "type": "FeatureCollection",
  "features": [
    {
      "type": "Feature",
      "properties": {
        "norad_id": 66674,
        "name": "TRANSPORTER-15 J",
        "group": "last-30-days",
        "lat": -41.08668919886765,
        "lon": 72.9202430602081,
        "alt_km": 520.3961587457597,
        "timestamp": "2025-12-20T18:51:30.445837+00:00",
        "meta_object_name": "TRANSPORTER-15 J",
        "meta_object_id": "2025-276J",
        "meta_epoch": "2025-12-20T11:07:27.326208",
        "meta_mean_motion": 15.16719165,
        "meta_eccentricity": 0.00048937,
        "meta_inclination": 97.4381,
        "meta_ra_of_asc_node": 66.0631,
        "meta_arg_of_pericenter": 265.6628,
        "meta_mean_anomaly": 94.4046,
        "meta_ephemeris_type": 0,
        "meta_classification_type": "U",
        "meta_norad_cat_id": 66674,
        "meta_element_set_no": 999,
        "meta_rev_at_epoch": 329,
        "meta_bstar": 0.00030384435,
        "meta_mean_motion_dot": 5.892e-05,
        "meta_mean_motion_ddot": 0,
        "tle_line1": "1 66674U 25276J   25354.46351072  .00005892  00000+0  30384-3 0  9992",
        "tle_line2": "2 66674  97.4381  66.0631 0004893 265.6628  94.4046 15.16719165  3297"
      },
      "geometry": {
        "type": "Point",
        "coordinates": [
          72.9202430602081,
          -41.08668919886765
        ]
      }
    },
    {
      "type": "Feature",
      "properties": {
        "norad_id": 66675,
        "name": "TRANSPORTER-15 K",
        "group": "last-30-days",
        "lat": -31.948867561521606,
        "lon": 71.06103266155488,
        "alt_km": 519.3938098615918,
        "timestamp": "2025-12-20T18:51:30.445847+00:00",
        "meta_object_name": "TRANSPORTER-15 K",
        "meta_object_id": "2025-276K",
        "meta_epoch": "2025-12-20T01:35:09.671424",
        "meta_mean_motion": 15.16956079,
        "meta_eccentricity": 0.00049655,
        "meta_inclination": 97.4401,
        "meta_ra_of_asc_node": 65.6801,
        "meta_arg_of_pericenter": 271.4608,
        "meta_mean_anomaly": 88.6057,
        "meta_ephemeris_type": 0,
        "meta_classification_type": "U",
        "meta_norad_cat_id": 66675,
        "meta_element_set_no": 999,
        "meta_rev_at_epoch": 323,
        "meta_bstar": 0.00040288595,
        "meta_mean_motion_dot": 7.889e-05,
        "meta_mean_motion_ddot": 0,
        "tle_line1": "1 66675U 25276K   25354.06608416  .00007889  00000+0  40289-3 0  9999",
        "tle_line2": "2 66675  97.4401  65.6801 0004965 271.4608  88.6057 15.16956079  3236"
      },
      "geometry": {
        "type": "Point",
        "coordinates": [
          71.06103266155488,
          -31.948867561521606
        ]
      }
    },
    {
      "type": "Feature",
      "properties": {
        "norad_id": 66676,
        "name": "TRANSPORTER-15 L",
        "group": "last-30-days",
        "lat": -39.66914083047398,
        "lon": 72.60543622480907,
        "alt_km": 520.2016184859549,
        "timestamp": "2025-12-20T18:51:30.445857+00:00",
        "meta_object_name": "TRANSPORTER-15 L",
        "meta_object_id": "2025-276L",
        "meta_epoch": "2025-12-20T03:12:05.609664",
        "meta_mean_motion": 15.1676344,
        "meta_eccentricity": 0.00047525,
        "meta_inclination": 97.4395,
        "meta_ra_of_asc_node": 65.7443,
        "meta_arg_of_pericenter": 269.117,
        "meta_mean_anomaly": 90.9518,
        "meta_ephemeris_type": 0,
        "meta_classification_type": "U",
        "meta_norad_cat_id": 66676,
        "meta_element_set_no": 999,
        "meta_rev_at_epoch": 324,
        "meta_bstar": 0.0003334872,
        "meta_mean_motion_dot": 6.482e-05,
        "meta_mean_motion_ddot": 0,
        "tle_line1": "1 66676U 25276L   25354.13339826  .00006482  00000+0  33349-3 0  9991",
        "tle_line2": "2 66676  97.4395  65.7443 0004752 269.1170  90.9518 15.16763440  3241"
      },
      "geometry": {
        "type": "Point",
        "coordinates": [
          72.60543622480907,
          -39.66914083047398
        ]
      }
    },
    {
      "type": "Feature",
      "properties": {
        "norad_id": 66677,
        "name": "TRANSPORTER-15 M",
        "group": "last-30-days",
        "lat": -2.4353154907440966,
        "lon": 66.71536008894749,
        "alt_km": 516.7503052956672,
        "timestamp": "2025-12-20T18:51:30.445868+00:00",
        "meta_object_name": "TRANSPORTER-15 M",
        "meta_object_id": "2025-276M",
        "meta_epoch": "2025-12-20T14:07:16.779360",
        "meta_mean_motion": 15.17416847,
        "meta_eccentricity": 0.00037854,
        "meta_inclination": 97.4394,
        "meta_ra_of_asc_node": 66.2031,
        "meta_arg_of_pericenter": 274.6798,
        "meta_mean_anomaly": 85.4004,
        "meta_ephemeris_type": 0,
        "meta_classification_type": "U",
        "meta_norad_cat_id": 66677,
        "meta_element_set_no": 999,
        "meta_rev_at_epoch": 331,
        "meta_bstar": 0.00042815032,
        "meta_mean_motion_dot": 8.499e-05,
        "meta_mean_motion_ddot": 0,
        "tle_line1": "1 66677U 25276M   25354.58838865  .00008499  00000+0  42815-3 0  9996",
        "tle_line2": "2 66677  97.4394  66.2031 0003785 274.6798  85.4004 15.17416847  3316"
      },
      "geometry": {
        "type": "Point",
        "coordinates": [
          66.71536008894749,
          -2.4353154907440966
        ]
      }
    },
    {
      "type": "Feature",
      "properties": {
        "norad_id": 66678,
        "name": "TRANSPORTER-15 N",
        "group": "last-30-days",
        "lat": -36.6006576595714,
        "lon": 71.96589500736546,
        "alt_km": 520.412945682895,
        "timestamp": "2025-12-20T18:51:30.445879+00:00",
        "meta_object_name": "TRANSPORTER-15 N",
        "meta_object_id": "2025-276N",
        "meta_epoch": "2025-12-20T06:21:18.021024",
        "meta_mean_motion": 15.16821752,
        "meta_eccentricity": 0.00047543,
        "meta_inclination": 97.4435,
        "meta_ra_of_asc_node": 65.8823,
        "meta_arg_of_pericenter": 260.7711,
        "meta_mean_anomaly": 99.2984,
        "meta_ephemeris_type": 0,
        "meta_classification_type": "U",
        "meta_norad_cat_id": 66678,
        "meta_element_set_no": 999,
        "meta_rev_at_epoch": 326,
        "meta_bstar": 0.0003909532,
        "meta_mean_motion_dot": 7.624e-05,
        "meta_mean_motion_ddot": 0,
        "tle_line1": "1 66678U 25276N   25354.26479191  .00007624  00000+0  39095-3 0  9990",
        "tle_line2": "2 66678  97.4435  65.8823 0004754 260.7711  99.2984 15.16821752  3263"
      },
      "geometry": {
        "type": "Point",
        "coordinates": [
          71.96589500736546,
          -36.6006576595714
        ]
      }
    },
    {
      "type": "Feature",
      "properties": {
        "norad_id": 66679,
        "name": "TRANSPORTER-15 P",
        "group": "last-30-days",
        "lat": -42.29515649060254,
        "lon": 73.20164079657171,
        "alt_km": 520.5215348055917,
        "timestamp": "2025-12-20T18:51:30.445888+00:00",
        "meta_object_name": "TRANSPORTER-15 P",
        "meta_object_id": "2025-276P",
        "meta_epoch": "2025-12-20T06:22:44.953248",
        "meta_mean_motion": 15.16670324,
        "meta_eccentricity": 0.00045818,
        "meta_inclination": 97.4373,
        "meta_ra_of_asc_node": 65.8663,
        "meta_arg_of_pericenter": 269.5888,
        "meta_mean_anomaly": 90.482,
        "meta_ephemeris_type": 0,
        "meta_classification_type": "U",
        "meta_norad_cat_id": 66679,
        "meta_element_set_no": 999,
        "meta_rev_at_epoch": 326,
        "meta_bstar": 0.00029516524,
        "meta_mean_motion_dot": 5.713e-05,
        "meta_mean_motion_ddot": 0,
        "tle_line1": "1 66679U 25276P   25354.26579807  .00005713  00000+0  29517-3 0  9991",
        "tle_line2": "2 66679  97.4373  65.8663 0004581 269.5888  90.4820 15.16670324  3266"
      },
      "geometry": {
        "type": "Point",
        "coordinates": [
          73.20164079657171,
          -42.29515649060254
        ]
      }
    },
    {
      "type": "Feature",
      "properties": {
        "norad_id": 66680,
        "name": "TRANSPORTER-15 Q",
        "group": "last-30-days",
        "lat": -35.43460799920617,
        "lon": 71.72834946327308,
        "alt_km": 520.6598491692948,
        "timestamp": "2025-12-20T18:51:30.445898+00:00",
        "meta_object_name": "TRANSPORTER-15 Q",
        "meta_object_id": "2025-276Q",
        "meta_epoch": "2025-12-20T11:05:58.132032",
        "meta_mean_motion": 15.16801989,
        "meta_eccentricity": 0.0004618,
        "meta_inclination": 97.4424,
        "meta_ra_of_asc_node": 66.0738,
        "meta_arg_of_pericenter": 257.4075,
        "meta_mean_anomaly": 102.6642,
        "meta_ephemeris_type": 0,
        "meta_classification_type": "U",
        "meta_norad_cat_id": 66680,
        "meta_element_set_no": 999,
        "meta_rev_at_epoch": 329,
        "meta_bstar": 0.00033464694,
        "meta_mean_motion_dot": 6.512e-05,
        "meta_mean_motion_ddot": 0,
        "tle_line1": "1 66680U 25276Q   25354.46247838  .00006512  00000+0  33465-3 0  9996",
        "tle_line2": "2 66680  97.4424  66.0738 0004618 257.4075 102.6642 15.16801989  3290"
      },
      "geometry": {
        "type": "Point",
        "coordinates": [
          71.72834946327308,
          -35.43460799920617
        ]
      }
    }
  ]
}